[{"OBJECT_NAME":"LEMUR-2-THEFALCONER","OBJECT_ID":"2025-052BG","EPOCH":"2026-03-09T22:50:08.545056","MEAN_MOTION":14.96514677,"ECCENTRICITY":0.00021143,"INCLINATION":97.6968,"RA_OF_ASC_NODE":322.9473,"ARG_OF_PERICENTER":10.9074,"MEAN_ANOMALY":349.2193,"EPHEMERIS_TYPE":0,"CLASSIFICATION_TYPE":"U","NORAD_CAT_ID":63264,"ELEMENT_SET_NO":999,"REV_AT_EPOCH":5384,"BSTAR":0.00055972494,"MEAN_MOTION_DOT":6.306e-5,"MEAN_MOTION_DDOT":0},{"OBJECT_NAME":"STARLINK-35688","OBJECT_ID":"2025-293S","EPOCH":"2026-03-09T11:52:35.116896","MEAN_MOTION":14.98331404,"ECCENTRICITY":0.00035264,"INCLINATION":70.0001,"RA_OF_ASC_NODE":95.148,"ARG_OF_PERICENTER":267.3625,"MEAN_ANOMALY":92.7131,"EPHEMERIS_TYPE":0,"CLASSIFICATION_TYPE":"U","NORAD_CAT_ID":67019,"ELEMENT_SET_NO":999,"REV_AT_EPOCH":1485,"BSTAR":0.00037488017,"MEAN_MOTION_DOT":4.383e-5,"MEAN_MOTION_DDOT":0}]
